FENGYUN 1C DEB          
1 31264U 99025BMW 17345.57062707  .00000209  00000-0  13470-3 0  9994
2 31264  99.1276 110.8787 0001662 139.9632 278.4781 14.13908921551031
